ONEWEB-0600             
1 54664U 22166Y   26186.20921295  .00000300  00000+0  69541-3 0  9995
2 54664  87.9240 240.3928 0001954  98.7448 261.3907 13.21823987173894
ONEWEB-0601             
1 54665U 22166Z   26186.57926947  .00000124  00000+0  26808-3 0  9998
2 54665  87.9239 240.3346 0001828  90.4281 269.7062 13.21824451174130
ONEWEB-0602             
1 54666U 22166AA  26186.54477588  .00000014  00000+0  34166-5 0  9994
2 54666  87.9239 240.3475 0001819 100.8058 259.3281 13.21827572173978
ONEWEB-0603             
1 54667U 22166AB  26186.17218858  .00000061  00000+0  11724-3 0  9992
2 54667  87.9251 240.3808 0001948  96.1286 264.0070 13.21827781173854
ONEWEB-0604             
1 54668U 22166AC  26186.16039587  .00000027  00000+0  34421-4 0  9994
2 54668  87.9248 240.3986 0002080  99.3169 260.8200 13.21823691173812
ONEWEB-0605             
1 54669U 22166AD  26186.15368379  .00000027  00000+0  34519-4 0  9996
2 54669  87.9242 240.4118 0002167  80.1039 280.0339 13.21827790173883
ONEWEB-0606             
1 54670U 22166AE  26186.17555088  .00000084  00000+0  17249-3 0  9998
2 54670  87.9242 240.4198 0002109 101.0845 259.0527 13.21825011173943
ONEWEB-0607             
1 54671U 22166AF  26186.21762256  .00000016  00000+0  72725-5 0  9998
2 54671  87.9245 240.3838 0001905  96.5517 263.5834 13.21825734173925
ONEWEB-0608             
1 54672U 22166AG  26186.14861582  .00000078  00000+0  15640-3 0  9992
2 54672  87.9251 240.3947 0001923  82.8302 277.3051 13.21823862173928
ONEWEB-0610             
1 54673U 22166AH  26186.20416539  .00000036  00000+0  56570-4 0  9990
2 54673  87.9240 240.3960 0001588  83.7881 276.3434 13.21825191173832
ONEWEB-0611             
1 54674U 22166AJ  26186.19741500  .00000051  00000+0  91510-4 0  9998
2 54674  87.9237 240.3932 0002186  99.7903 260.3478 13.21826110173827
ONEWEB-0612             
1 54675U 22166AK  26186.13519570  .00000018  00000+0  11831-4 0  9994
2 54675  87.9252 240.4031 0001949  93.1729 266.9628 13.21825981173808
ONEWEB-0615             
1 54676U 22166AL  26186.56917326  .00000065  00000+0  12599-3 0  9996
2 54676  87.9242 240.3297 0002168 104.1397 255.9978 13.21827668173876
ONEWEB-0655             
1 54677U 22166AM  26186.16713833  .00000024  00000+0  25424-4 0  9997
2 54677  87.9242 240.4106 0001798  99.5092 260.6245 13.21827868173810
ONEWEB-0659             
1 54678U 22166AN  26186.18395669  .00000042  00000+0  69676-4 0  9990
2 54678  87.9238 240.4071 0002134  96.4912 263.6465 13.21829144173905
ONEWEB-0685             
1 54679U 22166AP  26186.56223969  .00000063  00000+0  12082-3 0  9997
2 54679  87.9238 240.3236 0001807  88.1689 271.9652 13.21848127173848
ONEWEB-0712             
1 54680U 22166AQ  26186.52727591 -.00000089  00000+0 -26736-3 0  9996
2 54680  87.9086 225.1324 0001652 103.8344 256.2971 13.16595446174478
ONEWEB-0714             
1 54681U 22166AR  26186.18902590 -.00000016  00000+0 -71110-4 0  9990
2 54681  87.9240 240.3958 0001892 104.0744 256.0600 13.21825079173915
ONEWEB-0532             
1 55140U 23004A   26186.48499037  .00000061  00000+0  12268-3 0  9999
2 55140  87.9134   2.2235 0002106  83.6789 276.4583 13.17648170169990
ONEWEB-0533             
1 55141U 23004B   26185.99195261  .00000103  00000+0  25065-3 0  9993
2 55141  87.8955 347.1293 0001664  90.0166 270.1154 13.12440616170396
ONEWEB-0541             
1 55142U 23004C   26186.03574174 -.00000154  00000+0 -47102-3 0  9998
2 55142  87.8891  17.5052 0002016  89.5155 270.6204 13.11417756168284
ONEWEB-0543             
1 55143U 23004D   26185.91897231  .00000074  00000+0  15515-3 0  9999
2 55143  87.9177 331.9413 0001711 102.6317 257.5007 13.18685981172032
ONEWEB-0544             
1 55144U 23004E   26185.91222909  .00000053  00000+0  10283-3 0  9998
2 55144  87.9177 331.9425 0001941 102.4813 257.6536 13.18686534172033
ONEWEB-0560             
1 55145U 23004F   26186.36072972 -.00000209  00000+0 -56406-3 0  9994
2 55145  87.9178 331.8427 0001891 105.6141 254.5200 13.18685235172108
ONEWEB-0565             
1 55146U 23004G   26186.35400604  .00000100  00000+0  22206-3 0  9990
2 55146  87.9170 331.8702 0002271  98.7319 261.4071 13.18686384172096
ONEWEB-0567             
1 55147U 23004H   26186.34725812  .00000067  00000+0  13787-3 0  9997
2 55147  87.9177 331.8571 0002193 101.7893 258.3485 13.18687220172097
ONEWEB-0569             
1 55148U 23004J   26186.29074497  .00000155  00000+0  38926-3 0  9998
2 55148  87.8982 316.6172 0002394 119.5067 240.6302 13.13470130172550
ONEWEB-0570             
1 55149U 23004K   26186.33882367  .00000081  00000+0  17267-3 0  9990
2 55149  87.9178 331.8567 0002174  88.7681 271.3700 13.18686683172089
ONEWEB-0571             
1 55150U 23004L   26186.33208467  .00000059  00000+0  11810-3 0  9998
2 55150  87.9178 331.8575 0002989 110.6400 249.5053 13.18686116172098
ONEWEB-0572             
1 55151U 23004M   26186.44028496  .00000042  00000+0  75573-4 0  9992
2 55151  87.9135   2.2337 0002020  91.6831 268.4532 13.17650966169887
