OBJECT_NAME,OBJECT_ID,EPOCH,MEAN_MOTION,ECCENTRICITY,INCLINATION,RA_OF_ASC_NODE,ARG_OF_PERICENTER,MEAN_ANOMALY,EPHEMERIS_TYPE,CLASSIFICATION_TYPE,NORAD_CAT_ID,ELEMENT_SET_NO,REV_AT_EPOCH,BSTAR,MEAN_MOTION_DOT,MEAN_MOTION_DDOT
ONEWEB-0600,2022-166Y,2026-07-05T05:01:15.998880,13.21823987,.00019547,87.9240,240.3928,98.7448,261.3907,0,U,54664,999,17389,.69540596E-3,.3E-5,0
ONEWEB-0601,2022-166Z,2026-07-05T13:54:08.882208,13.21824451,.00018286,87.9239,240.3346,90.4281,269.7062,0,U,54665,999,17413,.26808233E-3,.124E-5,0
ONEWEB-0602,2022-166AA,2026-07-05T13:04:28.636032,13.21827572,.00018198,87.9239,240.3475,100.8058,259.3281,0,U,54666,999,17397,.3416579E-5,.14E-6,0
ONEWEB-0603,2022-166AB,2026-07-05T04:07:57.093312,13.21827781,.00019484,87.9251,240.3808,96.1286,264.0070,0,U,54667,999,17385,.11724386E-3,.61E-6,0
ONEWEB-0604,2022-166AC,2026-07-05T03:50:58.203168,13.21823691,.0002081,87.9248,240.3986,99.3169,260.8200,0,U,54668,999,17381,.34421E-4,.27E-6,0
ONEWEB-0605,2022-166AD,2026-07-05T03:41:18.279456,13.21827790,.00021673,87.9242,240.4118,80.1039,280.0339,0,U,54669,999,17388,.34518879E-4,.27E-6,0
ONEWEB-0606,2022-166AE,2026-07-05T04:12:47.596032,13.21825011,.00021092,87.9242,240.4198,101.0845,259.0527,0,U,54670,999,17394,.17249157E-3,.84E-6,0
ONEWEB-0607,2022-166AF,2026-07-05T05:13:22.589184,13.21825734,.00019055,87.9245,240.3838,96.5517,263.5834,0,U,54671,999,17392,.7272464E-5,.16E-6,0
ONEWEB-0608,2022-166AG,2026-07-05T03:34:00.406848,13.21823862,.0001923,87.9251,240.3947,82.8302,277.3051,0,U,54672,999,17392,.15639776E-3,.78E-6,0
ONEWEB-0610,2022-166AH,2026-07-05T04:53:59.889696,13.21825191,.00015888,87.9240,240.3960,83.7881,276.3434,0,U,54673,999,17383,.56569691E-4,.36E-6,0
ONEWEB-0611,2022-166AJ,2026-07-05T04:44:16.656000,13.21826110,.00021867,87.9237,240.3932,99.7903,260.3478,0,U,54674,999,17382,.91510223E-4,.51E-6,0
ONEWEB-0612,2022-166AK,2026-07-05T03:14:40.908480,13.21825981,.00019498,87.9252,240.4031,93.1729,266.9628,0,U,54675,999,17380,.11831404E-4,.18E-6,0
ONEWEB-0615,2022-166AL,2026-07-05T13:39:36.569664,13.21827668,.00021684,87.9242,240.3297,104.1397,255.9978,0,U,54676,999,17387,.1259894E-3,.65E-6,0
ONEWEB-0655,2022-166AM,2026-07-05T04:00:40.750848,13.21827868,.0001798,87.9242,240.4106,99.5092,260.6245,0,U,54677,999,17381,.25424E-4,.24E-6,0
ONEWEB-0659,2022-166AN,2026-07-05T04:24:53.858016,13.21829144,.00021346,87.9238,240.4071,96.4912,263.6465,0,U,54678,999,17390,.69675864E-4,.42E-6,0
ONEWEB-0685,2022-166AP,2026-07-05T13:29:37.509216,13.21848127,.0001807,87.9238,240.3236,88.1689,271.9652,0,U,54679,999,17384,.12081627E-3,.63E-6,0
ONEWEB-0712,2022-166AQ,2026-07-05T12:39:16.638624,13.16595446,.00016525,87.9086,225.1324,103.8344,256.2971,0,U,54680,999,17447,-.26735938E-3,-.89E-6,0
ONEWEB-0714,2022-166AR,2026-07-05T04:32:11.837760,13.21825079,.00018923,87.9240,240.3958,104.0744,256.0600,0,U,54681,999,17391,-.71110471E-4,-.16E-6,0
ONEWEB-0532,2023-004A,2026-07-05T11:38:23.167968,13.17648170,.00021067,87.9134,2.2235,83.6789,276.4583,0,U,55140,999,16999,.12268077E-3,.61E-6,0
ONEWEB-0533,2023-004B,2026-07-04T23:48:24.705504,13.12440616,.00016647,87.8955,347.1293,90.0166,270.1154,0,U,55141,999,17039,.25065159E-3,.103E-5,0
ONEWEB-0541,2023-004C,2026-07-05T00:51:28.086336,13.11417756,.00020168,87.8891,17.5052,89.5155,270.6204,0,U,55142,999,16828,-.47102081E-3,-.154E-5,0
ONEWEB-0543,2023-004D,2026-07-04T22:03:19.207584,13.18685981,.00017118,87.9177,331.9413,102.6317,257.5007,0,U,55143,999,17203,.15515022E-3,.74E-6,0
ONEWEB-0544,2023-004E,2026-07-04T21:53:36.593376,13.18686534,.00019411,87.9177,331.9425,102.4813,257.6536,0,U,55144,999,17203,.10283497E-3,.53E-6,0
ONEWEB-0560,2023-004F,2026-07-05T08:39:27.047808,13.18685235,.00018915,87.9178,331.8427,105.6141,254.5200,0,U,55145,999,17210,-.56405721E-3,-.209E-5,0
ONEWEB-0565,2023-004G,2026-07-05T08:29:46.121856,13.18686384,.00022716,87.9170,331.8702,98.7319,261.4071,0,U,55146,999,17209,.2220576E-3,.1E-5,0
ONEWEB-0567,2023-004H,2026-07-05T08:20:03.101568,13.18687220,.00021933,87.9177,331.8571,101.7893,258.3485,0,U,55147,999,17209,.1378721E-3,.67E-6,0
ONEWEB-0569,2023-004J,2026-07-05T06:58:40.365408,13.13470130,.00023947,87.8982,316.6172,119.5067,240.6302,0,U,55148,999,17255,.38926138E-3,.155E-5,0
ONEWEB-0570,2023-004K,2026-07-05T08:07:54.365088,13.18686683,.00021741,87.9178,331.8567,88.7681,271.3700,0,U,55149,999,17208,.17266921E-3,.81E-6,0
ONEWEB-0571,2023-004L,2026-07-05T07:58:12.115488,13.18686116,.00029895,87.9178,331.8575,110.6400,249.5053,0,U,55150,999,17209,.11810011E-3,.59E-6,0
ONEWEB-0572,2023-004M,2026-07-05T10:34:00.620544,13.17650966,.00020201,87.9135,2.2337,91.6831,268.4532,0,U,55151,999,16988,.75572965E-4,.42E-6,0
